0 THORAD DELTA 1 R/B
1 07532U 74089D   13281.81025006 -.00000054  00000-0 -72678-4 0  7445
2 07532 101.9392 359.2114 0066589 287.6424 184.7870 12.39852941760929
0 THORAD DELTA 1 R/B
1 07532U 74089D   13283.82712832 -.00000060  00000-0 -11750-3 0  7459
2 07532 101.9393 001.1877 0066580 283.8890 187.0572 12.39852993761175
0 THORAD DELTA 1 R/B
1 07532U 74089D   13286.14845318 -.00000032  00000-0  95408-4 0  7465
2 07532 101.9392 003.4633 0066576 279.5414 108.2442 12.39852810761469
0 THORAD DELTA 1 R/B
1 07532U 74089D   13288.16556075 -.00000013  00000-0  23440-3 0  7474
2 07532 101.9389 005.4408 0066592 275.7684 111.5573 12.39852771761718
0 THORAD DELTA 1 R/B
1 07532U 74089D   13290.18889398 -.00000012  00000-0  24220-3 0  7483
2 07532 101.9383 007.4243 0066611 271.9807 142.6609 12.39852897761969
0 THORAD DELTA 1 R/B
1 07532U 74089D   13292.46514733 -.00000028  00000-0  12189-3 0  7493
2 07532 101.9379 009.6556 0066636 267.7194 222.6684 12.39853092762246
0 THORAD DELTA 1 R/B
1 07532U 74089D   13294.48209367 -.00000045  00000-0 -53135-5 0  7501
2 07532 101.9377 011.6325 0066656 263.9454 225.2637 12.39853240762499
